{"type": "FeatureCollection", "features": [ {"type": "Feature", "properties": {"norad_id": 37834, "name": "INTELSAT 18 (IS-18)", "group": "intelsat", "lat": -0.03230258378362795, "lon": -147.5346962225015, "alt_km": 35782.01079638395, "timestamp": "2025-12-13T20:38:50.662986+00:00", "meta": {"OBJECT_NAME": "INTELSAT 18 (IS-18)", "OBJECT_ID": "2011-056A", "EPOCH": "2025-12-13T06:23:59.335872", "MEAN_MOTION": 1.00272045, "ECCENTRICITY": 0.00018512, "INCLINATION": 0.0159, "RA_OF_ASC_NODE": 316.9679, "ARG_OF_PERICENTER": 315.2631, "MEAN_ANOMALY": 85.9613, "EPHEMERIS_TYPE": 0, "CLASSIFICATION_TYPE": "U", "NORAD_CAT_ID": 37834, "ELEMENT_SET_NO": 999, "REV_AT_EPOCH": 5194, "BSTAR": 0, "MEAN_MOTION_DOT": 6.7e-07, "MEAN_MOTION_DDOT": 0}, "tle": {"line1": "1 37834U 11056A   25347.26665898  .00000067  00000+0  00000+0 0  9990", "line2": "2 37834   0.0159 316.9679 0001851 315.2631  85.9613  1.00272045 51941"}}, "geometry": {"type": "Point", "coordinates": [-147.5346962225015, -0.03230258378362795]}}, {"type": "Feature", "properties": {"norad_id": 38098, "name": "INTELSAT 22 (IS-22)", "group": "intelsat", "lat": 0.039689617110570695, "lon": 104.58340247013048, "alt_km": 35793.78128960953, "timestamp": "2025-12-13T20:38:50.662999+00:00", "meta": {"OBJECT_NAME": "INTELSAT 22 (IS-22)", "OBJECT_ID": "2012-011A", "EPOCH": "2025-12-13T01:16:38.512128", "MEAN_MOTION": 1.00270429, "ECCENTRICITY": 0.00017393, "INCLINATION": 0.0305, "RA_OF_ASC_NODE": 39.8655, "ARG_OF_PERICENTER": 240.9226, "MEAN_ANOMALY": 252.4626, "EPHEMERIS_TYPE": 0, "CLASSIFICATION_TYPE": "U", "NORAD_CAT_ID": 38098, "ELEMENT_SET_NO": 999, "REV_AT_EPOCH": 532, "BSTAR": 0, "MEAN_MOTION_DOT": 0, "MEAN_MOTION_DDOT": 0}, "tle": {"line1": "1 38098U 12011A   25347.05322352  .00000000  00000+0  00000+0 0  9994", "line2": "2 38098   0.0305  39.8655 0001739 240.9226 252.4626  1.00270429  5321"}}, "geometry": {"type": "Point", "coordinates": [104.58340247013048, 0.039689617110570695]}}, {"type": "Feature", "properties": {"norad_id": 38356, "name": "INTELSAT 19 (IS-19)", "group": "intelsat", "lat": -0.011676265635743173, "lon": -161.5338450712613, "alt_km": 35781.5469369487, "timestamp": "2025-12-13T20:38:50.663011+00:00", "meta": {"OBJECT_NAME": "INTELSAT 19 (IS-19)", "OBJECT_ID": "2012-030A", "EPOCH": "2025-12-13T07:23:38.817024", "MEAN_MOTION": 1.0027257, "ECCENTRICITY": 0.00033834, "INCLINATION": 0.0102, "RA_OF_ASC_NODE": 7.8717, "ARG_OF_PERICENTER": 263.1997, "MEAN_ANOMALY": 88.0949, "EPHEMERIS_TYPE": 0, "CLASSIFICATION_TYPE": "U", "NORAD_CAT_ID": 38356, "ELEMENT_SET_NO": 999, "REV_AT_EPOCH": 4858, "BSTAR": 0, "MEAN_MOTION_DOT": -4.2e-07, "MEAN_MOTION_DDOT": 0}, "tle": {"line1": "1 38356U 12030A   25347.30808816 -.00000042  00000+0  00000+0 0  9991", "line2": "2 38356   0.0102   7.8717 0003383 263.1997  88.0949  1.00272570 48581"}}, "geometry": {"type": "Point", "coordinates": [-161.5338450712613, -0.011676265635743173]}}, {"type": "Feature", "properties": {"norad_id": 38740, "name": "INTELSAT 20 (IS-20)", "group": "intelsat", "lat": 0.002423211110620752, "lon": 100.95614878621117, "alt_km": 35784.74317661542, "timestamp": "2025-12-13T20:38:50.663023+00:00", "meta": {"OBJECT_NAME": "INTELSAT 20 (IS-20)", "OBJECT_ID": "2012-043A", "EPOCH": "2025-12-13T03:30:06.448608", "MEAN_MOTION": 1.00270605, "ECCENTRICITY": 0.00031849, "INCLINATION": 0.0098, "RA_OF_ASC_NODE": 88.4617, "ARG_OF_PERICENTER": 95.2834, "MEAN_ANOMALY": 19.3699, "EPHEMERIS_TYPE": 0, "CLASSIFICATION_TYPE": "U", "NORAD_CAT_ID": 38740, "ELEMENT_SET_NO": 999, "REV_AT_EPOCH": 4888, "BSTAR": 0, "MEAN_MOTION_DOT": -1.1e-07, "MEAN_MOTION_DDOT": 0}, "tle": {"line1": "1 38740U 12043A   25347.14590797 -.00000011  00000+0  00000+0 0  9996", "line2": "2 38740   0.0098  88.4617 0003184  95.2834  19.3699  1.00270605 48888"}}, "geometry": {"type": "Point", "coordinates": [100.95614878621117, 0.002423211110620752]}}, {"type": "Feature", "properties": {"norad_id": 38749, "name": "INTELSAT 21 (IS-21)", "group": "intelsat", "lat": -0.022046342002859497, "lon": -25.486020574082854, "alt_km": 35784.06718084749, "timestamp": "2025-12-13T20:38:50.663035+00:00", "meta": {"OBJECT_NAME": "INTELSAT 21 (IS-21)", "OBJECT_ID": "2012-045A", "EPOCH": "2025-12-13T04:47:38.859648", "MEAN_MOTION": 1.00272241, "ECCENTRICITY": 0.00017802, "INCLINATION": 0.028, "RA_OF_ASC_NODE": 71.869, "ARG_OF_PERICENTER": 187.7631, "MEAN_ANOMALY": 196.4193, "EPHEMERIS_TYPE": 0, "CLASSIFICATION_TYPE": "U", "NORAD_CAT_ID": 38749, "ELEMENT_SET_NO": 999, "REV_AT_EPOCH": 4866, "BSTAR": 0, "MEAN_MOTION_DOT": -2.71e-06, "MEAN_MOTION_DDOT": 0}, "tle": {"line1": "1 38749U 12045A   25347.19975532 -.00000271  00000+0  00000+0 0  9994", "line2": "2 38749   0.0280  71.8690 0001780 187.7631 196.4193  1.00272241 48669"}}, "geometry": {"type": "Point", "coordinates": [-25.486020574082854, -0.022046342002859497]}}, {"type": "Feature", "properties": {"norad_id": 38867, "name": "INTELSAT 23 (IS-23)", "group": "intelsat", "lat": -0.03567883343619763, "lon": -20.49071192182543, "alt_km": 35787.839059367514, "timestamp": "2025-12-13T20:38:50.663047+00:00", "meta": {"OBJECT_NAME": "INTELSAT 23 (IS-23)", "OBJECT_ID": "2012-057A", "EPOCH": "2025-12-12T20:04:33.254400", "MEAN_MOTION": 1.00272659, "ECCENTRICITY": 0.0001042, "INCLINATION": 0.0448, "RA_OF_ASC_NODE": 97.1317, "ARG_OF_PERICENTER": 126.8115, "MEAN_ANOMALY": 105.9792, "EPHEMERIS_TYPE": 0, "CLASSIFICATION_TYPE": "U", "NORAD_CAT_ID": 38867, "ELEMENT_SET_NO": 999, "REV_AT_EPOCH": 4808, "BSTAR": 0, "MEAN_MOTION_DOT": -2.72e-06, "MEAN_MOTION_DDOT": 0}, "tle": {"line1": "1 38867U 12057A   25346.83649600 -.00000272  00000+0  00000+0 0  9993", "line2": "2 38867   0.0448  97.1317 0001042 126.8115 105.9792  1.00272659 48084"}}, "geometry": {"type": "Point", "coordinates": [-20.49071192182543, -0.03567883343619763]}}, {"type": "Feature", "properties": {"norad_id": 39360, "name": "FM-6", "group": "intelsat", "lat": -0.011406523336126682, "lon": -83.6180550484229, "alt_km": 35787.74219264966, "timestamp": "2025-12-13T20:38:50.663059+00:00", "meta": {"OBJECT_NAME": "FM-6", "OBJECT_ID": "2013-058A", "EPOCH": "2025-12-13T05:13:48.624960", "MEAN_MOTION": 1.00272571, "ECCENTRICITY": 0.00029284, "INCLINATION": 0.0093, "RA_OF_ASC_NODE": 60.8304, "ARG_OF_PERICENTER": 116.5266, "MEAN_ANOMALY": 227.1066, "EPHEMERIS_TYPE": 0, "CLASSIFICATION_TYPE": "U", "NORAD_CAT_ID": 39360, "ELEMENT_SET_NO": 999, "REV_AT_EPOCH": 4420, "BSTAR": 0, "MEAN_MOTION_DOT": -4e-08, "MEAN_MOTION_DDOT": 0}, "tle": {"line1": "1 39360U 13058A   25347.21792390 -.00000004  00000+0  00000+0 0  9995", "line2": "2 39360   0.0093  60.8304 0002928 116.5266 227.1066  1.00272571 44203"}}, "geometry": {"type": "Point", "coordinates": [-83.6180550484229, -0.011406523336126682]}}, {"type": "Feature", "properties": {"norad_id": 40271, "name": "INTELSAT 30 (IS-30)", "group": "intelsat", "lat": -0.028643241048304166, "lon": -62.577265771482274, "alt_km": 35790.07999275818, "timestamp": "2025-12-13T20:38:50.663071+00:00", "meta": {"OBJECT_NAME": "INTELSAT 30 (IS-30)", "OBJECT_ID": "2014-062A", "EPOCH": "2025-12-12T08:55:38.613216", "MEAN_MOTION": 1.00272537, "ECCENTRICITY": 0.00012624, "INCLINATION": 0.0176, "RA_OF_ASC_NODE": 31.1392, "ARG_OF_PERICENTER": 47.2418, "MEAN_ANOMALY": 41.7881, "EPHEMERIS_TYPE": 0, "CLASSIFICATION_TYPE": "U", "NORAD_CAT_ID": 40271, "ELEMENT_SET_NO": 999, "REV_AT_EPOCH": 491, "BSTAR": 0, "MEAN_MOTION_DOT": -1.41e-06, "MEAN_MOTION_DDOT": 0}, "tle": {"line1": "1 40271U 14062A   25346.37197469 -.00000141  00000+0  00000+0 0  9998", "line2": "2 40271   0.0176  31.1392 0001262  47.2418  41.7881  1.00272537  4916"}}, "geometry": {"type": "Point", "coordinates": [-62.577265771482274, -0.028643241048304166]}}, {"type": "Feature", "properties": {"norad_id": 40333, "name": "DIRECTV 14", "group": "intelsat", "lat": -0.02186965897403189, "lon": -66.73373839103331, "alt_km": 35787.386126468125, "timestamp": "2025-12-13T20:38:50.663082+00:00", "meta": {"OBJECT_NAME": "DIRECTV 14", "OBJECT_ID": "2014-078B", "EPOCH": "2025-12-13T05:10:28.076736", "MEAN_MOTION": 1.00270161, "ECCENTRICITY": 2.873e-05, "INCLINATION": 0.0191, "RA_OF_ASC_NODE": 325.5463, "ARG_OF_PERICENTER": 194.2425, "MEAN_ANOMALY": 260.7577, "EPHEMERIS_TYPE": 0, "CLASSIFICATION_TYPE": "U", "NORAD_CAT_ID": 40333, "ELEMENT_SET_NO": 999, "REV_AT_EPOCH": 4017, "BSTAR": 0, "MEAN_MOTION_DOT": -1.12e-06, "MEAN_MOTION_DDOT": 0}, "tle": {"line1": "1 40333U 14078B   25347.21560274 -.00000112  00000+0  00000+0 0  9994", "line2": "2 40333   0.0191 325.5463 0000287 194.2425 260.7577  1.00270161 40172"}}, "geometry": {"type": "Point", "coordinates": [-66.73373839103331, -0.02186965897403189]}}, {"type": "Feature", "properties": {"norad_id": 40663, "name": "DIRECTV 15", "group": "intelsat", "lat": -0.02926156206595274, "lon": -70.37122207338406, "alt_km": 35785.60170618863, "timestamp": "2025-12-13T20:38:50.663093+00:00", "meta": {"OBJECT_NAME": "DIRECTV 15", "OBJECT_ID": "2015-026A", "EPOCH": "2025-12-13T06:17:08.930688", "MEAN_MOTION": 1.00272043, "ECCENTRICITY": 1.156e-05, "INCLINATION": 0.0396, "RA_OF_ASC_NODE": 84.8277, "ARG_OF_PERICENTER": 174.2824, "MEAN_ANOMALY": 174.512, "EPHEMERIS_TYPE": 0, "CLASSIFICATION_TYPE": "U", "NORAD_CAT_ID": 40663, "ELEMENT_SET_NO": 999, "REV_AT_EPOCH": 3859, "BSTAR": 0, "MEAN_MOTION_DOT": -8.9e-07, "MEAN_MOTION_DDOT": 0}, "tle": {"line1": "1 40663U 15026A   25347.26190892 -.00000089  00000+0  00000+0 0  9997", "line2": "2 40663   0.0396  84.8277 0000115 174.2824 174.5120  1.00272043 38594"}}, "geometry": {"type": "Point", "coordinates": [-70.37122207338406, -0.02926156206595274]}}]}